{
  "type": "FeatureCollection",
  "features": [
    {
      "type": "Feature",
      "properties": {
        "norad_id": 66842,
        "name": "STARLINK-35769",
        "group": "last-30-days",
        "lat": 65.75680285577717,
        "lon": -72.69729306268417,
        "alt_km": 404.05467407926153,
        "timestamp": "2025-12-26T06:43:28.234275+00:00",
        "meta_object_name": "STARLINK-35769",
        "meta_object_id": "2025-280X",
        "meta_epoch": "2025-12-25T16:21:43.530048",
        "meta_mean_motion": 15.52546492,
        "meta_eccentricity": 0.00031597,
        "meta_inclination": 70.0007,
        "meta_ra_of_asc_node": 162.9191,
        "meta_arg_of_pericenter": 274.6719,
        "meta_mean_anomaly": 85.4107,
        "meta_ephemeris_type": 0,
        "meta_classification_type": "U",
        "meta_norad_cat_id": 66842,
        "meta_element_set_no": 999,
        "meta_rev_at_epoch": 494,
        "meta_bstar": 0.0015378743,
        "meta_mean_motion_dot": 0.00095683,
        "meta_mean_motion_ddot": 0,
        "tle_line1": "1 66842U 25280X   25359.68175382  .00095683  00000+0  15379-2 0  9994",
        "tle_line2": "2 66842  70.0007 162.9191 0003159 274.6719  85.4107 15.52546492  4940"
      },
      "geometry": {
        "type": "Point",
        "coordinates": [
          -72.69729306268417,
          65.75680285577717
        ]
      }
    },
    {
      "type": "Feature",
      "properties": {
        "norad_id": 66843,
        "name": "STARLINK-35997",
        "group": "last-30-days",
        "lat": 63.50133075125261,
        "lon": -65.65667671256148,
        "alt_km": 404.6612291679239,
        "timestamp": "2025-12-26T06:43:28.234342+00:00",
        "meta_object_name": "STARLINK-35997",
        "meta_object_id": "2025-280Y",
        "meta_epoch": "2025-12-25T20:59:04.378272",
        "meta_mean_motion": 15.52549774,
        "meta_eccentricity": 0.00037016,
        "meta_inclination": 70.001,
        "meta_ra_of_asc_node": 162.386,
        "meta_arg_of_pericenter": 270.5237,
        "meta_mean_anomaly": 89.5526,
        "meta_ephemeris_type": 0,
        "meta_classification_type": "U",
        "meta_norad_cat_id": 66843,
        "meta_element_set_no": 999,
        "meta_rev_at_epoch": 497,
        "meta_bstar": 0.0014904467,
        "meta_mean_motion_dot": 0.00092709,
        "meta_mean_motion_ddot": 0,
        "tle_line1": "1 66843U 25280Y   25359.87435623  .00092709  00000+0  14904-2 0  9992",
        "tle_line2": "2 66843  70.0010 162.3860 0003701 270.5237  89.5526 15.52549774  4974"
      },
      "geometry": {
        "type": "Point",
        "coordinates": [
          -65.65667671256148,
          63.50133075125261
        ]
      }
    },
    {
      "type": "Feature",
      "properties": {
        "norad_id": 66844,
        "name": "STARLINK-36073",
        "group": "last-30-days",
        "lat": 63.53318852753678,
        "lon": -65.74214151204029,
        "alt_km": 407.5236879352524,
        "timestamp": "2025-12-26T06:43:28.234365+00:00",
        "meta_object_name": "STARLINK-36073",
        "meta_object_id": "2025-280Z",
        "meta_epoch": "2025-12-25T20:59:12.019488",
        "meta_mean_motion": 15.53228928,
        "meta_eccentricity": 0.00077036,
        "meta_inclination": 70.0008,
        "meta_ra_of_asc_node": 162.387,
        "meta_arg_of_pericenter": 296.3075,
        "meta_mean_anomaly": 63.732,
        "meta_ephemeris_type": 0,
        "meta_classification_type": "U",
        "meta_norad_cat_id": 66844,
        "meta_element_set_no": 999,
        "meta_rev_at_epoch": 494,
        "meta_bstar": -0.012979827,
        "meta_mean_motion_dot": -0.00748042,
        "meta_mean_motion_ddot": 0,
        "tle_line1": "1 66844U 25280Z   25359.87444467 -.00748042  00000+0 -12980-1 0  9990",
        "tle_line2": "2 66844  70.0008 162.3870 0007703 296.3075  63.7320 15.53228928  4944"
      },
      "geometry": {
        "type": "Point",
        "coordinates": [
          -65.74214151204029,
          63.53318852753678
        ]
      }
    },
    {
      "type": "Feature",
      "properties": {
        "norad_id": 66845,
        "name": "STARLINK-36068",
        "group": "last-30-days",
        "lat": 59.51601958937257,
        "lon": -56.95373713678072,
        "alt_km": 404.8641938707706,
        "timestamp": "2025-12-26T06:43:28.234380+00:00",
        "meta_object_name": "STARLINK-36068",
        "meta_object_id": "2025-280AA",
        "meta_epoch": "2025-12-25T22:30:22.356864",
        "meta_mean_motion": 15.52559021,
        "meta_eccentricity": 0.00033668,
        "meta_inclination": 70.001,
        "meta_ra_of_asc_node": 162.2054,
        "meta_arg_of_pericenter": 274.5134,
        "meta_mean_anomaly": 85.5668,
        "meta_ephemeris_type": 0,
        "meta_classification_type": "U",
        "meta_norad_cat_id": 66845,
        "meta_element_set_no": 999,
        "meta_rev_at_epoch": 498,
        "meta_bstar": 0.0015139749,
        "meta_mean_motion_dot": 0.00094221,
        "meta_mean_motion_ddot": 0,
        "tle_line1": "1 66845U 25280AA  25359.93775876  .00094221  00000+0  15140-2 0  9992",
        "tle_line2": "2 66845  70.0010 162.2054 0003366 274.5134  85.5668 15.52559021  4987"
      },
      "geometry": {
        "type": "Point",
        "coordinates": [
          -56.95373713678072,
          59.51601958937257
        ]
      }
    },
    {
      "type": "Feature",
      "properties": {
        "norad_id": 66846,
        "name": "STARLINK-36055",
        "group": "last-30-days",
        "lat": 62.3200992458086,
        "lon": -62.69932970409543,
        "alt_km": 404.77695270459935,
        "timestamp": "2025-12-26T06:43:28.234393+00:00",
        "meta_object_name": "STARLINK-36055",
        "meta_object_id": "2025-280AB",
        "meta_epoch": "2025-12-25T17:53:01.855968",
        "meta_mean_motion": 15.52504965,
        "meta_eccentricity": 0.00033929,
        "meta_inclination": 70.001,
        "meta_ra_of_asc_node": 162.7379,
        "meta_arg_of_pericenter": 270.6917,
        "meta_mean_anomaly": 89.3881,
        "meta_ephemeris_type": 0,
        "meta_classification_type": "U",
        "meta_norad_cat_id": 66846,
        "meta_element_set_no": 999,
        "meta_rev_at_epoch": 495,
        "meta_bstar": 0.00066927244,
        "meta_mean_motion_dot": 0.000412,
        "meta_mean_motion_ddot": 0,
        "tle_line1": "1 66846U 25280AB  25359.74516037  .00041200  00000+0  66927-3 0  9993",
        "tle_line2": "2 66846  70.0010 162.7379 0003392 270.6917  89.3881 15.52504965  4951"
      },
      "geometry": {
        "type": "Point",
        "coordinates": [
          -62.69932970409543,
          62.3200992458086
        ]
      }
    },
    {
      "type": "Feature",
      "properties": {
        "norad_id": 66847,
        "name": "STARLINK-36061",
        "group": "last-30-days",
        "lat": 60.912123002454955,
        "lon": -59.62539974225619,
        "alt_km": 404.6553779026526,
        "timestamp": "2025-12-26T06:43:28.234403+00:00",
        "meta_object_name": "STARLINK-36061",
        "meta_object_id": "2025-280AC",
        "meta_epoch": "2025-12-25T22:30:52.036992",
        "meta_mean_motion": 15.52557595,
        "meta_eccentricity": 0.00032691,
        "meta_inclination": 70.001,
        "meta_ra_of_asc_node": 162.207,
        "meta_arg_of_pericenter": 272.0403,
        "meta_mean_anomaly": 88.0409,
        "meta_ephemeris_type": 0,
        "meta_classification_type": "U",
        "meta_norad_cat_id": 66847,
        "meta_element_set_no": 999,
        "meta_rev_at_epoch": 498,
        "meta_bstar": 0.0013896827,
        "meta_mean_motion_dot": 0.00086381,
        "meta_mean_motion_ddot": 0,
        "tle_line1": "1 66847U 25280AC  25359.93810228  .00086381  00000+0  13897-2 0  9990",
        "tle_line2": "2 66847  70.0010 162.2070 0003269 272.0403  88.0409 15.52557595  4986"
      },
      "geometry": {
        "type": "Point",
        "coordinates": [
          -59.62539974225619,
          60.912123002454955
        ]
      }
    },
    {
      "type": "Feature",
      "properties": {
        "norad_id": 66848,
        "name": "STARLINK-36091",
        "group": "last-30-days",
        "lat": -40.57343467113538,
        "lon": -72.75827875964136,
        "alt_km": 417.7862117510349,
        "timestamp": "2025-12-26T06:43:28.234415+00:00",
        "meta_object_name": "STARLINK-36091",
        "meta_object_id": "2025-281A",
        "meta_epoch": "2025-12-25T22:00:01.999584",
        "meta_mean_motion": 15.50779054,
        "meta_eccentricity": 0.000118,
        "meta_inclination": 43.0005,
        "meta_ra_of_asc_node": 42.6013,
        "meta_arg_of_pericenter": 246.014,
        "meta_mean_anomaly": 134.9477,
        "meta_ephemeris_type": 0,
        "meta_classification_type": "U",
        "meta_norad_cat_id": 66848,
        "meta_element_set_no": 999,
        "meta_rev_at_epoch": 350,
        "meta_bstar": -0.0070416017,
        "meta_mean_motion_dot": -0.00396029,
        "meta_mean_motion_ddot": 0,
        "tle_line1": "1 66848U 25281A   25359.91668981 -.00396029  00000+0 -70416-2 0  9992",
        "tle_line2": "2 66848  43.0005  42.6013 0001180 246.0140 134.9477 15.50779054  3505"
      },
      "geometry": {
        "type": "Point",
        "coordinates": [
          -72.75827875964136,
          -40.57343467113538
        ]
      }
    }
  ]
}